NORAD_CAT_ID,OBJECT_NAME,OBJECT_TYPE,EPOCH,MEAN_MOTION,ECCENTRICITY,INCLINATION,RA_OF_ASC_NODE,ARG_OF_PERICENTER,MEAN_ANOMALY,BSTAR,MEAN_MOTION_DOT,MEAN_MOTION_DDOT,TLE_LINE0,TLE_LINE1,TLE_LINE2,SEMIMAJOR_AXIS,PERIOD,APOGEE,PERIGEE,DECAYED
51144.0,STARLINK-3185,PAYLOAD,2022-02-03 14:00:01,15.77176856,0.0001186,53.2177,197.5663,52.8289,299.75,-0.0054343,-0.00824761,0.0,0 STARLINK-3185,1 51144U 22005AS  22034.58334491 -.00824761  00000-0 -54343-2 0  9993,2 51144  53.2177 197.5663 0001186  52.8289 299.7500 15.77176856  3760,6716.581,91.302,339.242,337.649,0.0
51144.0,STARLINK-3185,PAYLOAD,2022-02-03 22:00:01,15.76586498,0.0001112,53.2174,195.909,59.0328,26.9567,-0.0055217,-0.00816936,0.0,0 STARLINK-3185,1 51144U 22005AS  22034.91668981 -.00816936  00000-0 -55217-2 0  9990,2 51144  53.2174 195.9090 0001112  59.0328  26.9567 15.76586498  2998,6718.257,91.337,340.869,339.375,0.0
51144.0,STARLINK-3185,PAYLOAD,2022-02-04 14:00:01,15.75292607,0.0001313,53.2185,192.5967,66.3896,204.24,-0.0046092,-0.00656453,0.0,0 STARLINK-3185,1 51144U 22005AS  22035.58335648 -.00656453  00000-0 -46092-2 0  9992,2 51144  53.2185 192.5967 0001313  66.3896 204.2400 15.75292607  3926,6721.936,91.412,344.68300000000005,342.918,0.0
51144.0,STARLINK-3185,PAYLOAD,2022-02-04 20:00:01,15.74976043,0.0001303,53.2175,191.3557,56.074,192.9153,-0.005937,-0.00817927,0.0,0 STARLINK-3185,1 51144U 22005AS  22035.83334491 -.00817927  00000-0 -59370-2 0  9993,2 51144  53.2175 191.3557 0001303  56.0740 192.9153 15.74976043  3964,6722.8359999999975,91.43,345.577,343.825,0.0
51144.0,STARLINK-3185,PAYLOAD,2022-02-04 22:00:00,15.74834319,0.0001104,53.2172,190.9422,49.136,312.5932,-0.006028,-0.0082459,0.0,0 STARLINK-3185,1 51144U 22005AS  22035.91667824 -.00824590  00000-0 -60280-2 0  9997,2 51144  53.2172 190.9422 0001104  49.1360 312.5932 15.74834319  3152,6723.24,91.438,345.847,344.362,0.0
51144.0,STARLINK-3185,PAYLOAD,2022-02-05 12:00:02,15.73742558,0.0001385,53.2177,188.0489,38.485,31.2865,-0.0050162,-0.00666865,0.0,0 STARLINK-3185,1 51144U 22005AS  22036.50002315 -.00666865  00000-0 -50162-2 0  9998,2 51144  53.2177 188.0489 0001385  38.4850  31.2865 15.73742558  3246,6726.349,91.502,349.145,347.282,0.0
51144.0,STARLINK-3185,PAYLOAD,2022-02-07 00:17:44,15.7325584,0.0002961,53.2235,180.5791,27.7739,332.3439,0.00016386,0.00022494,0.0,0 STARLINK-3185,1 51144U 22005AS  22038.01232473  .00022494  00000-0  16386-3 0  9999,2 51144  53.2235 180.5791 0002961  27.7739 332.3439 15.73255840  4305,6727.736,91.53,351.593,347.6090000000001,0.0
51144.0,STARLINK-3185,PAYLOAD,2022-02-07 14:01:03,15.73229283,0.0001911,53.2211,177.75099999999995,61.8128,298.3085,-3.2939e-05,-5.247e-05,0.0,0 STARLINK-3185,1 51144U 22005AS  22038.58406563 -.00005247  00000-0 -32939-4 0  9996,2 51144  53.2211 177.7510 0001911  61.8128 298.3085 15.73229283  4390,6727.812,91.531,350.962,348.391,0.0
51144.0,STARLINK-3185,PAYLOAD,2022-02-07 15:32:32,15.732287699999995,0.0001874,53.2196,177.4369,47.0285,313.0892,-2.1389e-05,-3.626e-05,0.0,0 STARLINK-3185,1 51144U 22005AS  22038.64759340 -.00003626  00000-0 -21389-4 0  9993,2 51144  53.2196 177.4369 0001874  47.0285 313.0892 15.73228770  3298,6727.813,91.532,350.939,348.417,0.0
51144.0,STARLINK-3185,PAYLOAD,2022-02-09 11:45:26,15.73220518,0.0002912,53.2187,168.3193,81.759,278.376,6.8514e-05,9.013e-05,0.0,0 STARLINK-3185,1 51144U 22005AS  22040.48989043  .00009013  00000-0  68514-4 0  9998,2 51144  53.2187 168.3193 0002912  81.7590 278.3760 15.73220518  4694,6727.837,91.532,351.661,347.74300000000005,0.0
51144.0,STARLINK-3185,PAYLOAD,2022-02-09 14:48:24,15.73232746,0.0001966,53.2189,167.6911,24.1317,335.9795,0.00017173,0.00023583,0.0,0 STARLINK-3185,1 51144U 22005AS  22040.61694742  .00023583  00000-0  17173-3 0  9994,2 51144  53.2189 167.6911 0001966  24.1317 335.9795 15.73232746  3606,6727.802,91.531,350.99,348.344,0.0
51144.0,STARLINK-3185,PAYLOAD,2022-02-09 20:00:01,15.73173043,0.0002228,53.2182,166.6219,29.1586,117.2127,0.00047497,0.00066494,0.0,0 STARLINK-3185,1 51144U 22005AS  22040.83334491  .00066494  00000-0  47497-3 0  9990,2 51144  53.2182 166.6219 0002228  29.1586 117.2127 15.73173043  4744,6727.972,91.535,351.336,348.338,0.0
51144.0,STARLINK-3185,PAYLOAD,2022-02-10 06:00:00,15.7320555,0.0002116,53.2174,164.5413,37.1921,310.1795,-1.572e-05,-2.828e-05,0.0,0 STARLINK-3185,1 51144U 22005AS  22041.25001157 -.00002828  00000-0 -15720-4 0  9995,2 51144  53.2174 164.5413 0002116  37.1921 310.1795 15.73205550  4818,6727.879,91.533,351.168,348.321,0.0
51144.0,STARLINK-3185,PAYLOAD,2022-02-10 13:40:36,15.73243476,0.000256,53.2182,162.9756,22.5789,337.5344,0.00027072,0.00037617,0.0,0 STARLINK-3185,1 51144U 22005AS  22041.56986560  .00037617  00000-0  27072-3 0  9993,2 51144  53.2182 162.9756 0002560  22.5789 337.5344 15.73243476  3756,6727.771,91.531,351.3590000000001,347.914,0.0
51144.0,STARLINK-3185,PAYLOAD,2022-02-10 14:00:01,15.73208253,0.0002167,53.2181,162.9103,26.1011,50.4723,0.00014256,0.00019441,0.0,0 STARLINK-3185,1 51144U 22005AS  22041.58335648  .00019441  00000-0  14256-3 0  9995,2 51144  53.2181 162.9103 0002167  26.1011  50.4723 15.73208253  4861,6727.871999999999,91.533,351.195,348.279,0.0
51144.0,STARLINK-3185,PAYLOAD,2022-02-10 18:15:02,15.73246077,0.0001511,53.2181,162.0331,30.9868,329.1241,0.00012656,0.00017213,0.0,0 STARLINK-3185,1 51144U 22005AS  22041.76044498  .00017213  00000-0  12656-3 0  9992,2 51144  53.2181 162.0331 0001511  30.9868 329.1241 15.73246077  4890,6727.764,91.53,350.645,348.612,0.0
51144.0,STARLINK-3185,PAYLOAD,2022-02-10 19:46:31,15.73226035,0.000404,53.2181,161.7174,31.3627,328.7633,0.00041025,0.00057433,0.0,0 STARLINK-3185,1 51144U 22005AS  22041.82398037  .00057433  00000-0  41025-3 0  9990,2 51144  53.2181 161.7174 0004040  31.3627 328.7633 15.73226035  3799,6727.821,91.532,352.404,346.968,0.0
51144.0,STARLINK-3185,PAYLOAD,2022-02-11 14:00:01,15.73290947,0.0002343,53.2184,157.9617,21.9519,321.5016,-0.00057473,-0.00080835,0.0,0 STARLINK-3185,1 51144U 22005AS  22042.58334491 -.00080835  00000-0 -57473-3 0  9996,2 51144  53.2184 157.9617 0002343  21.9519 321.5016 15.73290947  5027,6727.636,91.528,351.077,347.925,0.0
51144.0,STARLINK-3185,PAYLOAD,2022-02-11 14:04:15,15.73278263,0.0001835,53.2183,157.9458,17.375999999999998,342.7323,0.00031854,0.00044473,0.0,0 STARLINK-3185,1 51144U 22005AS  22042.58628659  .00044473  00000-0  31854-3 0  9999,2 51144  53.2183 157.9458 0001835  17.3760 342.7323 15.73278263  3910,6727.672,91.529,350.772,348.30300000000005,0.0
51144.0,STARLINK-3185,PAYLOAD,2022-02-11 22:00:01,15.73227934,0.0002367,53.2183,156.3119,18.9096,53.5746,4.5462e-07,-5.58e-06,0.0,0 STARLINK-3185,1 51144U 22005AS  22042.91668981 -.00000558  00000-0  45462-6 0  9998,2 51144  53.2183 156.3119 0002367  18.9096  53.5746 15.73227934  3732,6727.816,91.532,351.273,348.088,0.0
51144.0,STARLINK-3185,PAYLOAD,2022-02-12 14:00:01,15.73130044,0.0002509,53.2183,153.0138,20.9656,229.3413,-0.00041038,-0.0005766,0.0,0 STARLINK-3185,1 51144U 22005AS  22043.58334491 -.00057660  00000-0 -41038-3 0  9997,2 51144  53.2183 153.0138 0002509  20.9656 229.3413 15.73130044  5180,6728.095,91.537,351.648,348.272,0.0
51144.0,STARLINK-3185,PAYLOAD,2022-02-12 22:00:00,15.73089825,0.0002455,53.2182,151.3643,17.9965,321.1053,0.00030151,0.00041709,0.0,0 STARLINK-3185,1 51144U 22005AS  22043.91667824  .00041709  00000-0  30151-3 0  9992,2 51144  53.2182 151.3643 0002455  17.9965 321.1053 15.73089825  3729,6728.209,91.54,351.726,348.423,0.0
51144.0,STARLINK-3185,PAYLOAD,2022-02-13 04:00:01,15.7307602,0.0002306,53.2178,150.1259,18.051,297.7242,0.001209,0.00171659,0.0,0 STARLINK-3185,1 51144U 22005AS  22044.16668981  .00171659  00000-0  12090-2 0  9994,2 51144  53.2178 150.1259 0002306  18.0510 297.7242 15.73076020  5270,6728.249,91.54,351.665,348.56199999999984,0.0
51144.0,STARLINK-3185,PAYLOAD,2022-02-13 12:00:00,15.73192889,0.0002532,53.2174,148.4782,19.468,25.1174,-5.6354e-05,-8.522e-05,0.0,0 STARLINK-3185,1 51144U 22005AS  22044.50001157 -.00008522  00000-0 -56354-4 0  9991,2 51144  53.2174 148.4782 0002532  19.4680  25.1174 15.73192889  5326,6727.915,91.534,351.4840000000001,348.077,0.0
51144.0,STARLINK-3185,PAYLOAD,2022-02-13 14:00:01,15.73168994,0.0002656,53.2172,148.0663,19.7663,137.0544,0.00034572,0.00048118,0.0,0 STARLINK-3185,1 51144U 22005AS  22044.58334491  .00048118  00000-0  34572-3 0  9999,2 51144  53.2172 148.0663 0002656  19.7663 137.0544 15.73168994  3725,6727.984,91.535,351.636,348.06199999999984,0.0
51144.0,STARLINK-3185,PAYLOAD,2022-02-13 22:00:00,15.73227488,0.0002637,53.2164,146.4163,18.8584,226.863,6.318300000000001e-05,8.265e-05,0.0,0 STARLINK-3185,1 51144U 22005AS  22044.91667824  .00008265  00000-0  63183-4 0  9995,2 51144  53.2164 146.4163 0002637  18.8584 226.8630 15.73227488  5396,6727.816999999999,91.532,351.456,347.908,0.0
51144.0,STARLINK-3185,PAYLOAD,2022-02-14 14:00:01,15.73221702,0.0002725,53.2165,143.1183,17.1554,46.5309,0.00025045,0.0003471,0.0,0 STARLINK-3185,1 51144U 22005AS  22045.58334491  .00034710  00000-0  25045-3 0  9998,2 51144  53.2165 143.1183 0002725  17.1554  46.5309 15.73221702  3728,6727.833000000001,91.532,351.532,347.865,0.0
51144.0,STARLINK-3185,PAYLOAD,2022-02-14 20:00:01,15.73273571,0.0002764,53.216,141.8809,13.6405,26.7478,-0.00052856,-0.00074399,0.0,0 STARLINK-3185,1 51144U 22005AS  22045.83334491 -.00074399  00000-0 -52856-3 0  9995,2 51144  53.2160 141.8809 0002764  13.6405  26.7478 15.73273571  3708,6727.685,91.529,351.41,347.691,0.0
51144.0,STARLINK-3185,PAYLOAD,2022-02-15 06:00:00,15.73220018,0.0002535,53.2167,139.8172,16.9929,224.6016,-0.00036411,-0.00051463,0.0,0 STARLINK-3185,1 51144U 22005AS  22046.25001157 -.00051463  00000-0 -36411-3 0  9998,2 51144  53.2167 139.8172 0002535  16.9929 224.6016 15.73220018  5604,6727.8380000000025,91.532,351.409,347.99800000000016,0.0
